{
  "norad_id": 54752,
  "name": "SHIYAN-21 (SY-21)",
  "history": [
    {
      "epoch": "2026-03-28T08:30:12.893760Z",
      "apogee_km": 498.6746755088607,
      "perigee_km": 468.6404634423734,
      "latitude_deg": 1.715477881667989e-05,
      "longitude_deg": -95.51866589849642,
      "height_km": 485.9035303355016,
      "semi_major_axis_km": 6861.794569475616,
      "eccentricity": 0.00218851,
      "inclination_deg": 35.9758,
      "raan_deg": 217.811,
      "arg_perigee_deg": 257.4958,
      "mean_anomaly_deg": 102.3327,
      "mean_motion_rev_day": 15.27376816
    }
  ]
}